DELTA 1 DEB             
1 09701U 73086FZ  24120.41682376  .00007114  00000+0  17659-1 0  9998
2 09701 102.6639 186.1663 0064577 175.3663 198.0807 13.19847453347010
